SAR-LUPE 2              
1 31797U 07030A   26199.80401456  .00022168  00000+0  34238-3 0  9993
2 31797  98.1066 308.2727 0004941 208.1530 151.9455 15.54134505 61847
SARAL                   
1 39086U 13009A   26199.81341587  .00000011  00000+0  20129-4 0  9992
2 39086  98.5558  25.9809 0001921 158.4364 201.6901 14.32896315700137
SAOCOM 1A               
1 43641U 18076A   26199.79850873  .00000163  00000+0  27032-4 0  9991
2 43641  97.8885  26.0874 0001429  86.3308 273.8068 14.82148091420789
SAUDISAT 5A             
1 43831U 18102A   26199.85636138  .00002676  00000+0  99496-4 0  9999
2 43831  97.3046 260.8301 0010097  31.9494 328.2357 15.28341706420516
SAUDISAT 5B             
1 43833U 18102C   26199.87004978  .00002534  00000+0  93659-4 0  9992
2 43833  97.3155 263.9707 0010870  33.2247 326.9673 15.28583797420630
RISAT-2B                
1 44233U 19028A   26199.80531779  .00001048  00000+0  86522-4 0  9992
2 44233  36.9959 166.5995 0008844 288.4275  71.5506 15.01091821392589
RISAT-2BR1              
1 44857U 19089F   26199.60768451  .00001326  00000+0  10754-3 0  9990
2 44857  36.9609 285.2066 0009268  76.2252 283.9521 15.01169923361929
SAOCOM 1B               
1 46265U 20059A   26199.82970257  .00000621  00000+0  84573-4 0  9995
2 46265  97.8891  25.2147 0001520  83.4282 276.7104 14.82146700318173
RISAT-2BR2              
1 46905U 20081A   26199.87142071  .00001543  00000+0  12394-3 0  9996
2 46905  36.8994  36.1852 0012748  51.0631 309.1245 15.01189442312238
RESURS-P 4              
1 59371U 24061A   26199.87182936  .00001601  00000+0  53782-4 0  9995
2 59371  97.2760 147.2244 0003212  83.9793 276.1815 15.32292631128611
